From:	Horizons Ephemeris System <horizons@ssd.jpl.nasa.gov>
Sent:	Friday, December 4, 2020 11:43 AM
Subject:	[Horizons] MAJOR BODY #C(usr={180.,20.,.600^G}@301)_T(301) (1/1)

 Automated mail xmit by MAIL_REQUEST, PID= 26932 Fri Dec  4 09:42:59 2020
++++++++++++++++++++++++++++++++ (part 1 of 1)  +++++++++++++++++++++++++++++++
*******************************************************************************
 Revised: July 31, 2013             Moon / (Earth)                          301
 
 GEOPHYSICAL DATA (updated 2018-Aug-15):
  Vol. mean radius, km  = 1737.53+-0.03    Mass, x10^22 kg       =    7.349
  Radius (gravity), km  = 1738.0           Surface emissivity    =    0.92
  Radius (IAU), km      = 1737.4           GM, km^3/s^2          = 4902.800066
  Density, g/cm^3       =    3.3437        GM 1-sigma, km^3/s^2  =  +-0.0001  
  V(1,0)                =   +0.21          Surface accel., m/s^2 =    1.62
  Earth/Moon mass ratio = 81.3005690769    Farside crust. thick. = ~80 - 90 km
  Mean crustal density  = 2.97+-.07 g/cm^3 Nearside crust. thick.= 58+-8 km 
  Heat flow, Apollo 15  = 3.1+-.6 mW/m^2   Mean angular diameter = 31'05.2"
  Heat flow, Apollo 17  = 2.2+-.5 mW/m^2   Sid. rot. rate, rad/s = 0.0000026617
  Geometric Albedo      = 0.12             Mean solar day        = 29.5306 d
  Obliquity to orbit    = 6.67 deg         Orbit period          = 27.321582 d
  Semi-major axis, a    = 384400 km        Eccentricity          = 0.05490
  Mean motion, rad/s    = 2.6616995x10^-6  Inclination           = 5.145 deg
  Apsidal period        = 3231.50 d        Nodal period          = 6798.38 d
                                 Perihelion  Aphelion    Mean
  Solar Constant (W/m^2)         1414+-7     1323+-7     1368+-7
  Maximum Planetary IR (W/m^2)   1314        1226        1268
  Minimum Planetary IR (W/m^2)      5.2         5.2         5.2
********************************************************************************
 
 
*******************************************************************************
Ephemeris / MAIL_REQUEST Fri Dec  4 09:42:58 2020 Pasadena, USA  / Horizons
*******************************************************************************
Target body name: Moon (301)                      {source: DE431mx}
Center body name: Moon (301)                      {source: DE431mx}
Center-site name: (user defined site below)
*******************************************************************************
Start time      : A.D. 2020-Jan-01 00:00:00.0000 TDB
Stop  time      : A.D. 2039-Jan-01 00:00:00.0000 TDB
Step-size       : 10000 steps
*******************************************************************************
Center geodetic : 180.000000,20.0000000,0.6000000 {E-lon(deg),Lat(deg),Alt(km)}
Center cylindric: 180.000000,1633.18577,594.43101 {E-lon(deg),Dxy(km),Dz(km)}
Center pole/equ : IAU_MOON                        {East-longitude positive}
Center radii    : 1737.4 x 1737.4 x 1737.4 km     {Equator, meridian, pole}    
Output units    : KM-S
Output type     : GEOMETRIC cartesian states
Output format   : 3 (position, velocity, LT, range, range-rate)
Reference frame : Ecliptic of J2000.0
*******************************************************************************
JDTDB
   X     Y     Z
   VX    VY    VZ
   LT    RG    RR
*******************************************************************************
$$SOE
2464179.420000002 = A.D. 2034-Aug-04 22:04:48.0001 TDB 
  -1.583987745131456E+03 -3.778513223158733E+02 -6.073345054395587E+02
   1.048692221226862E-03 -4.217576514997651E-03 -1.111393524873864E-04
   5.797343974543885E-03  1.738000000000000E+03 -4.471554184336072E-19
2464180.114000002 = A.D. 2034-Aug-05 14:44:09.6001 TDB 
  -1.501230863025194E+03 -6.246675818114600E+02 -6.137917465512669E+02
   1.705773939302949E-03 -3.997425288610836E-03 -1.037786755443495E-04
   5.797343974543883E-03  1.738000000000000E+03  4.152157456883497E-19
2464180.808000002 = A.D. 2034-Aug-06 07:23:31.2001 TDB 
  -1.380293259430715E+03 -8.552036255357511E+02 -6.197267759590841E+02
   2.319495592985363E-03 -3.675708742386611E-03 -9.375855881737301E-05
   5.797343974543884E-03  1.738000000000000E+03  1.245647237065049E-18
2464181.502000002 = A.D. 2034-Aug-07 00:02:52.8001 TDB 
  -1.224248722903577E+03 -1.063602209570845E+03 -6.249875232874492E+02
   2.874269895333436E-03 -3.260605268986491E-03 -8.133647171450036E-05
   5.797343974543885E-03  1.738000000000000E+03 -2.195852501236464E-19
2464182.196000002 = A.D. 2034-Aug-07 16:42:14.4001 TDB 
  -1.037062647265926E+03 -1.244568726857589E+03 -6.294392343776090E+02
   3.356007875378260E-03 -2.762663186330198E-03 -6.683124381238266E-05
   5.797343974543884E-03  1.738000000000000E+03 -1.636908228194455E-19
2464182.890000002 = A.D. 2034-Aug-08 09:21:36.0001 TDB 
  -8.234912761826379E+02 -1.393505560748198E+03 -6.329679061492319E+02
   3.752475776560694E-03 -2.194532755444115E-03 -5.061468017212190E-05
   5.797343974543885E-03  1.738000000000000E+03 -1.157813137015590E-19
2464183.584000002 = A.D. 2034-Aug-09 02:00:57.6001 TDB 
  -5.889609170662293E+02 -1.506628742154114E+03 -6.354831795442099E+02
   4.053604878356772E-03 -1.570645155587538E-03 -3.310191697430541E-05
   5.797343974543885E-03  1.738000000000000E+03  2.235777092168036E-19
2464184.278000002 = A.D. 2034-Aug-09 18:40:19.2001 TDB 
  -3.394301857967437E+02 -1.581063967214498E+03 -6.369206234264535E+02
   4.251746495272794E-03 -9.068465376459323E-04 -1.474079821027138E-05
   5.797343974543884E-03  1.738000000000000E+03  2.455362342291683E-19
2464184.972000002 = A.D. 2034-Aug-10 11:19:40.8001 TDB 
  -8.123876772621458E+01 -1.614919553395027E+03 -6.372433590715035E+02
   4.341865784091302E-03 -2.199963758955675E-04  3.999450353340815E-06
   5.797343974543885E-03  1.738000000000000E+03  8.234446879636743E-21
2464185.666000002 = A.D. 2034-Aug-11 03:59:02.4001 TDB 
   1.790534826555060E+02 -1.607334492094120E+03 -6.364429910631991E+02
   4.321669513335121E-03  4.724597896531639E-04  2.263998726365930E-05
   5.797343974543885E-03  1.738000000000000E+03 -7.885106708985486E-20
2464186.360000002 = A.D. 2034-Aug-11 20:38:24.0001 TDB 
   4.348330389889606E+02 -1.558500381074389E+03 -6.345398256962369E+02
   4.191664582865770E-03  1.152932499970927E-03  4.070431419153067E-05
   5.797343974543883E-03  1.738000000000000E+03  1.457247569002381E-19
2464187.054000002 = A.D. 2034-Aug-12 13:17:45.6001 TDB 
   6.796005911529840E+02 -1.469656675315810E+03 -6.315823724615782E+02
   3.955145790056084E-03  1.804134319802298E-03  5.773019062018422E-05
   5.797343974543885E-03  1.738000000000000E+03  2.754796774278474E-19
2464187.748000002 = A.D. 2034-Aug-13 05:57:07.2001 TDB 
   9.071360802781680E+02 -1.343059364634677E+03 -6.276461383013987E+02
   3.618113085609831E-03  2.409518374431661E-03  7.328126891365384E-05
   5.797343974543883E-03  1.738000000000000E+03  1.085948873338761E-18
2464188.442000002 = A.D. 2034-Aug-13 22:36:28.8001 TDB 
   1.111656703727459E+03 -1.181923854732102E+03 -6.228317386525913E+02
   3.189120309937042E-03  2.953698435891534E-03  8.695820573782894E-05
   5.797343974543884E-03  1.738000000000000E+03 -1.026061986941402E-18
2464189.136000002 = A.D. 2034-Aug-14 15:15:50.4001 TDB 
   1.287963884121320E+03 -9.903434791716973E+02 -6.172623643647985E+02
   2.679059112134547E-03  3.422839938772381E-03  9.840899065061029E-05
   5.797343974543885E-03  1.738000000000000E+03 -7.306200140477690E-19
2464189.830000001 = A.D. 2034-Aug-15 07:55:12.0001 TDB 
   1.431575467965937E+03 -7.731856872591188E+02 -6.110806595988398E+02
   2.100883389147110E-03  3.805011992339781E-03  1.073382173096015E-04
   5.797343974543884E-03  1.738000000000000E+03  1.277586909810306E-19
2464190.524000002 = A.D. 2034-Aug-16 00:34:33.6001 TDB 
   1.538839785708138E+03 -5.359685215479687E+02 -6.044450825603736E+02
   1.469281102957166E-03  4.090491394038992E-03  1.135150152288659E-04
   5.797343974543884E-03  1.738000000000000E+03  2.076078728441748E-19
2464191.218000002 = A.D. 2034-Aug-16 17:13:55.2001 TDB 
   1.607028658099320E+03 -2.847205039046086E+02 -5.975258376872143E+02
   8.003016981820043E-04  4.272010823505581E-03  1.167793681017507E-04
   5.797343974543884E-03  1.738000000000000E+03  4.790950911788649E-20
2464191.912000002 = A.D. 2034-Aug-17 09:53:16.8001 TDB 
   1.634406962877091E+03 -2.582747753461942E+01 -5.905004835756538E+02
   1.109485130767171E-04  4.344944781654377E-03  1.170465740139421E-04
   5.797343974543883E-03  1.738000000000000E+03 -1.038039364220874E-19
2464192.606000002 = A.D. 2034-Aug-18 02:32:38.4001 TDB 
   1.620276968450781E+03  2.341297079361386E+02 -5.835493341352428E+02
  -5.812534828973293E-04  4.307428405838908E-03  1.143096556581592E-04
   5.797343974543883E-03  1.738000000000000E+03  7.186426367682975E-20
2464193.300000002 = A.D. 2034-Aug-18 19:12:00.0001 TDB 
   1.564996282586410E+03  4.885425399066222E+02 -5.768507798315835E+02
  -1.258703612783079E-03  4.160406000819378E-03  1.086396031530830E-04
   5.797343974543884E-03  1.738000000000001E+03  0.000000000000000E+00
2464193.994000002 = A.D. 2034-Aug-19 11:51:21.6001 TDB 
   1.469968937660341E+03  7.309429506296239E+02 -5.705766602644994E+02
  -1.904173671519095E-03  3.907607931949241E-03  1.001834225264097E-04
   5.797343974543884E-03  1.738000000000000E+03  2.954419728936334E-19
2464194.688000001 = A.D. 2034-Aug-20 04:30:43.2001 TDB 
   1.337609822243554E+03  9.551678996257685E+02 -5.648878180329859E+02
  -2.501246863687764E-03  3.555456382031269E-03  8.916006028698853E-05
   5.797343974543884E-03  1.738000000000000E+03 -4.311855820609784E-19
2464195.382000002 = A.D. 2034-Aug-20 21:10:04.8001 TDB 
   1.171283353213582E+03  1.155516226625536E+03 -5.599299567712291E+02
  -3.034736218630995E-03  3.112902323839964E-03  7.585436768826502E-05
   5.797343974543883E-03  1.738000000000000E+03  2.674947592415329E-19
